CCSDS_OMM_VERS = 2.0
CREATION_DATE  = 
ORIGINATOR     = 

OBJECT_NAME    = SILVERSAT
OBJECT_ID      = 1998-067XV
CENTER_NAME    = EARTH
REF_FRAME      = TEME
TIME_SYSTEM    = UTC
MEAN_ELEMENT_THEORY = SGP/SGP4

EPOCH          = 2026-02-13T13:16:40.520928
MEAN_MOTION    = 15.64339222
ECCENTRICITY   = .00027499
INCLINATION    = 51.6263
RA_OF_ASC_NODE = 187.7333
ARG_OF_PERICENTER = 293.7998
MEAN_ANOMALY   = 66.2709

EPHEMERIS_TYPE = 0
CLASSIFICATION_TYPE = U
NORAD_CAT_ID   = 66909
ELEMENT_SET_NO = 999
REV_AT_EPOCH   = 1140
BSTAR          = .12579855E-2
MEAN_MOTION_DOT = .124119E-2
MEAN_MOTION_DDOT = 0

CCSDS_OMM_VERS = 2.0
CREATION_DATE  = 
ORIGINATOR     = 

OBJECT_NAME    = ISS OBJECT XW
OBJECT_ID      = 1998-067XW
CENTER_NAME    = EARTH
REF_FRAME      = TEME
TIME_SYSTEM    = UTC
MEAN_ELEMENT_THEORY = SGP/SGP4

EPOCH          = 2026-02-13T15:17:56.099904
MEAN_MOTION    = 15.62654303
ECCENTRICITY   = .00020375
INCLINATION    = 51.6252
RA_OF_ASC_NODE = 187.5401
ARG_OF_PERICENTER = 327.1583
MEAN_ANOMALY   = 32.9284

EPHEMERIS_TYPE = 0
CLASSIFICATION_TYPE = U
NORAD_CAT_ID   = 66910
ELEMENT_SET_NO = 999
REV_AT_EPOCH   = 1141
BSTAR          = .10213313E-2
MEAN_MOTION_DOT = .93835E-3
MEAN_MOTION_DDOT = 0

CCSDS_OMM_VERS = 2.0
CREATION_DATE  = 
ORIGINATOR     = 

OBJECT_NAME    = ISS OBJECT XX
OBJECT_ID      = 1998-067XX
CENTER_NAME    = EARTH
REF_FRAME      = TEME
TIME_SYSTEM    = UTC
MEAN_ELEMENT_THEORY = SGP/SGP4

EPOCH          = 2026-02-13T18:35:24.068832
MEAN_MOTION    = 15.65853496
ECCENTRICITY   = .00035725
INCLINATION    = 51.6235
RA_OF_ASC_NODE = 186.2005
ARG_OF_PERICENTER = 313.6050
MEAN_ANOMALY   = 46.4648

EPHEMERIS_TYPE = 0
CLASSIFICATION_TYPE = U
NORAD_CAT_ID   = 66911
ELEMENT_SET_NO = 999
REV_AT_EPOCH   = 1143
BSTAR          = .13632327E-2
MEAN_MOTION_DOT = .143289E-2
MEAN_MOTION_DDOT = 0

CCSDS_OMM_VERS = 2.0
CREATION_DATE  = 
ORIGINATOR     = 

OBJECT_NAME    = ISS OBJECT XY
OBJECT_ID      = 1998-067XY
CENTER_NAME    = EARTH
REF_FRAME      = TEME
TIME_SYSTEM    = UTC
MEAN_ELEMENT_THEORY = SGP/SGP4

EPOCH          = 2026-02-13T18:34:07.286880
MEAN_MOTION    = 15.59544600
ECCENTRICITY   = .00003767
INCLINATION    = 51.6274
RA_OF_ASC_NODE = 187.7075
ARG_OF_PERICENTER = 314.4648
MEAN_ANOMALY   = 45.6314

EPHEMERIS_TYPE = 0
CLASSIFICATION_TYPE = U
NORAD_CAT_ID   = 66912
ELEMENT_SET_NO = 999
REV_AT_EPOCH   = 1141
BSTAR          = .87786993E-3
MEAN_MOTION_DOT = .71234E-3
MEAN_MOTION_DDOT = 0

CCSDS_OMM_VERS = 2.0
CREATION_DATE  = 
ORIGINATOR     = 

OBJECT_NAME    = ISS OBJECT XZ
OBJECT_ID      = 1998-067XZ
CENTER_NAME    = EARTH
REF_FRAME      = TEME
TIME_SYSTEM    = UTC
MEAN_ELEMENT_THEORY = SGP/SGP4

EPOCH          = 2026-02-14T06:31:34.440960
MEAN_MOTION    = 15.49925317
ECCENTRICITY   = .00106306
INCLINATION    = 51.6301
RA_OF_ASC_NODE = 188.0321
ARG_OF_PERICENTER = 110.4640
MEAN_ANOMALY   = 249.7491

EPHEMERIS_TYPE = 0
CLASSIFICATION_TYPE = U
NORAD_CAT_ID   = 67683
ELEMENT_SET_NO = 999
REV_AT_EPOCH   = 115
BSTAR          = .73560977E-3
MEAN_MOTION_DOT = .41719E-3
MEAN_MOTION_DDOT = 0

CCSDS_OMM_VERS = 2.0
CREATION_DATE  = 
ORIGINATOR     = 

OBJECT_NAME    = GXIBA-1
OBJECT_ID      = 1998-067YA
CENTER_NAME    = EARTH
REF_FRAME      = TEME
TIME_SYSTEM    = UTC
MEAN_ELEMENT_THEORY = SGP/SGP4

EPOCH          = 2026-02-14T06:26:52.065024
MEAN_MOTION    = 15.50730945
ECCENTRICITY   = .00123607
INCLINATION    = 51.6304
RA_OF_ASC_NODE = 188.0125
ARG_OF_PERICENTER = 104.2585
MEAN_ANOMALY   = 255.9778

EPHEMERIS_TYPE = 0
CLASSIFICATION_TYPE = U
NORAD_CAT_ID   = 67684
ELEMENT_SET_NO = 999
REV_AT_EPOCH   = 115
BSTAR          = .12727836E-2
MEAN_MOTION_DOT = .75008E-3
MEAN_MOTION_DDOT = 0

CCSDS_OMM_VERS = 2.0
CREATION_DATE  = 
ORIGINATOR     = 

OBJECT_NAME    = CORAL
OBJECT_ID      = 1998-067YB
CENTER_NAME    = EARTH
REF_FRAME      = TEME
TIME_SYSTEM    = UTC
MEAN_ELEMENT_THEORY = SGP/SGP4

EPOCH          = 2026-02-14T06:30:37.099872
MEAN_MOTION    = 15.50065759
ECCENTRICITY   = .00125625
INCLINATION    = 51.6301
RA_OF_ASC_NODE = 188.0281
ARG_OF_PERICENTER = 106.0174
MEAN_ANOMALY   = 254.2200

EPHEMERIS_TYPE = 0
CLASSIFICATION_TYPE = U
NORAD_CAT_ID   = 67685
ELEMENT_SET_NO = 999
REV_AT_EPOCH   = 115
BSTAR          = .78217893E-3
MEAN_MOTION_DOT = .44668E-3
MEAN_MOTION_DDOT = 0

CCSDS_OMM_VERS = 2.0
CREATION_DATE  = 
ORIGINATOR     = 

OBJECT_NAME    = ISS OBJECT YC
OBJECT_ID      = 1998-067YC
CENTER_NAME    = EARTH
REF_FRAME      = TEME
TIME_SYSTEM    = UTC
MEAN_ELEMENT_THEORY = SGP/SGP4

EPOCH          = 2026-02-14T06:29:48.601824
MEAN_MOTION    = 15.50225641
ECCENTRICITY   = .00077583
INCLINATION    = 51.6307
RA_OF_ASC_NODE = 188.0255
ARG_OF_PERICENTER = 80.7495
MEAN_ANOMALY   = 279.4371

EPHEMERIS_TYPE = 0
CLASSIFICATION_TYPE = U
NORAD_CAT_ID   = 67686
ELEMENT_SET_NO = 999
REV_AT_EPOCH   = 115
BSTAR          = .90917752E-3
MEAN_MOTION_DOT = .52245E-3
MEAN_MOTION_DDOT = 0

CCSDS_OMM_VERS = 2.0
CREATION_DATE  = 
ORIGINATOR     = 

OBJECT_NAME    = LEOPARD
OBJECT_ID      = 1998-067YD
CENTER_NAME    = EARTH
REF_FRAME      = TEME
TIME_SYSTEM    = UTC
MEAN_ELEMENT_THEORY = SGP/SGP4

EPOCH          = 2026-02-14T06:31:00.616224
MEAN_MOTION    = 15.50007453
ECCENTRICITY   = .00078276
INCLINATION    = 51.6306
RA_OF_ASC_NODE = 188.0303
ARG_OF_PERICENTER = 82.6227
MEAN_ANOMALY   = 277.5652

EPHEMERIS_TYPE = 0
CLASSIFICATION_TYPE = U
NORAD_CAT_ID   = 67687
ELEMENT_SET_NO = 999
REV_AT_EPOCH   = 107
BSTAR          = .74265914E-3
MEAN_MOTION_DOT = .42208E-3
MEAN_MOTION_DDOT = 0

CCSDS_OMM_VERS = 2.0
CREATION_DATE  = 
ORIGINATOR     = 

OBJECT_NAME    = ISS OBJECT YE
OBJECT_ID      = 1998-067YE
CENTER_NAME    = EARTH
REF_FRAME      = TEME
TIME_SYSTEM    = UTC
MEAN_ELEMENT_THEORY = SGP/SGP4

EPOCH          = 2026-02-14T06:30:05.263200
MEAN_MOTION    = 15.50158147
ECCENTRICITY   = .00077404
INCLINATION    = 51.6308
RA_OF_ASC_NODE = 188.0270
ARG_OF_PERICENTER = 81.3262
MEAN_ANOMALY   = 278.8604

EPHEMERIS_TYPE = 0
CLASSIFICATION_TYPE = U
NORAD_CAT_ID   = 67688
ELEMENT_SET_NO = 999
REV_AT_EPOCH   = 107
BSTAR          = .85323832E-3
MEAN_MOTION_DOT = .48863E-3
MEAN_MOTION_DDOT = 0

CCSDS_OMM_VERS = 2.0
CREATION_DATE  = 
ORIGINATOR     = 

OBJECT_NAME    = CREW DRAGON 12
OBJECT_ID      = 2026-031A
CENTER_NAME    = EARTH
REF_FRAME      = TEME
TIME_SYSTEM    = UTC
MEAN_ELEMENT_THEORY = SGP/SGP4

EPOCH          = 2026-02-13T14:39:05.346720
MEAN_MOTION    = 16.18051748
ECCENTRICITY   = .0025866
INCLINATION    = 51.6318
RA_OF_ASC_NODE = 191.8838
ARG_OF_PERICENTER = 226.1048
MEAN_ANOMALY   = 133.7834

EPHEMERIS_TYPE = 0
CLASSIFICATION_TYPE = U
NORAD_CAT_ID   = 67796
ELEMENT_SET_NO = 999
REV_AT_EPOCH   = 3
BSTAR          = .25516E-3
MEAN_MOTION_DOT = .465694E-2
MEAN_MOTION_DDOT = .11779E-4

